[{"OBJECT_NAME":"STARLINK-4542","OBJECT_ID":"2022-097AZ","EPOCH":"2022-08-29T16:00:00.999936","MEAN_MOTION":15.73161319,"ECCENTRICITY":7.11e-5,"INCLINATION":53.2199,"RA_OF_ASC_NODE":151.6551,"ARG_OF_PERICENTER":98.4639,"MEAN_ANOMALY":108.4353,"EPHEMERIS_TYPE":0,"CLASSIFICATION_TYPE":"U","NORAD_CAT_ID":53435,"ELEMENT_SET_NO":999,"REV_AT_EPOCH":349,"BSTAR":0.00059483,"MEAN_MOTION_DOT":0.00083554,"MEAN_MOTION_DDOT":0},{"OBJECT_NAME":"STARLINK-4527","OBJECT_ID":"2022-097BA","EPOCH":"2022-08-29T14:00:01.000224","MEAN_MOTION":15.73162587,"ECCENTRICITY":5.56e-5,"INCLINATION":53.2193,"RA_OF_ASC_NODE":152.062,"ARG_OF_PERICENTER":71.6778,"MEAN_ANOMALY":25.3743,"EPHEMERIS_TYPE":0,"CLASSIFICATION_TYPE":"U","NORAD_CAT_ID":53436,"ELEMENT_SET_NO":999,"REV_AT_EPOCH":130,"BSTAR":0.00056209,"MEAN_MOTION_DOT":0.00078882,"MEAN_MOTION_DDOT":0},{"OBJECT_NAME":"STARLINK-4526","OBJECT_ID":"2022-097BC","EPOCH":"2022-08-29T16:00:00.999936","MEAN_MOTION":15.73131093,"ECCENTRICITY":0.0001258,"INCLINATION":53.2194,"RA_OF_ASC_NODE":151.6484,"ARG_OF_PERICENTER":91.6167,"MEAN_ANOMALY":118.3083,"EPHEMERIS_TYPE":0,"CLASSIFICATION_TYPE":"U","NORAD_CAT_ID":53438,"ELEMENT_SET_NO":999,"REV_AT_EPOCH":349,"BSTAR":0.00060346,"MEAN_MOTION_DOT":0.00084678,"MEAN_MOTION_DDOT":0},{"OBJECT_NAME":"STARLINK-4519","OBJECT_ID":"2022-097BD","EPOCH":"2022-08-29T14:00:01.000224","MEAN_MOTION":15.73154521,"ECCENTRICITY":5.74e-5,"INCLINATION":53.2196,"RA_OF_ASC_NODE":152.0598,"ARG_OF_PERICENTER":99.3245,"MEAN_ANOMALY":358.923,"EPHEMERIS_TYPE":0,"CLASSIFICATION_TYPE":"U","NORAD_CAT_ID":53439,"ELEMENT_SET_NO":999,"REV_AT_EPOCH":130,"BSTAR":0.00054816,"MEAN_MOTION_DOT":0.00076866,"MEAN_MOTION_DDOT":0},{"OBJECT_NAME":"FALCON 9 DEB","OBJECT_ID":"2022-097BE","EPOCH":"2022-08-29T07:13:51.519936","MEAN_MOTION":16.2818084,"ECCENTRICITY":0.0023774,"INCLINATION":53.2183,"RA_OF_ASC_NODE":149.6102,"ARG_OF_PERICENTER":130.1661,"MEAN_ANOMALY":230.147,"EPHEMERIS_TYPE":0,"CLASSIFICATION_TYPE":"U","NORAD_CAT_ID":53440,"ELEMENT_SET_NO":999,"REV_AT_EPOCH":312,"BSTAR":0.00063382,"MEAN_MOTION_DOT":0.02725452,"MEAN_MOTION_DDOT":1.1992e-5},{"OBJECT_NAME":"FALCON 9 DEB","OBJECT_ID":"2022-097BF","EPOCH":"2022-08-29T14:30:46.926720","MEAN_MOTION":16.29049941,"ECCENTRICITY":0.0021189,"INCLINATION":53.2091,"RA_OF_ASC_NODE":147.9306,"ARG_OF_PERICENTER":127.9084,"MEAN_ANOMALY":232.388,"EPHEMERIS_TYPE":0,"CLASSIFICATION_TYPE":"U","NORAD_CAT_ID":53441,"ELEMENT_SET_NO":999,"REV_AT_EPOCH":317,"BSTAR":0.00062517,"MEAN_MOTION_DOT":0.02868098,"MEAN_MOTION_DDOT":1.2019e-5},{"OBJECT_NAME":"FALCON 9 DEB","OBJECT_ID":"2022-097BG","EPOCH":"2022-08-29T14:05:21.485472","MEAN_MOTION":16.32378042,"ECCENTRICITY":0.0016749,"INCLINATION":53.2162,"RA_OF_ASC_NODE":147.8098,"ARG_OF_PERICENTER":129.0052,"MEAN_ANOMALY":231.2488,"EPHEMERIS_TYPE":0,"CLASSIFICATION_TYPE":"U","NORAD_CAT_ID":53442,"ELEMENT_SET_NO":999,"REV_AT_EPOCH":317,"BSTAR":0.00055791,"MEAN_MOTION_DOT":0.03459683,"MEAN_MOTION_DDOT":1.2103e-5},{"OBJECT_NAME":"FALCON 9 DEB","OBJECT_ID":"2022-097BH","EPOCH":"2022-08-29T13:52:04.636416","MEAN_MOTION":16.36705632,"ECCENTRICITY":0.0012462,"INCLINATION":53.2165,"RA_OF_ASC_NODE":147.738,"ARG_OF_PERICENTER":128.4741,"MEAN_ANOMALY":231.7426,"EPHEMERIS_TYPE":0,"CLASSIFICATION_TYPE":"U","NORAD_CAT_ID":53443,"ELEMENT_SET_NO":999,"REV_AT_EPOCH":317,"BSTAR":0.00053966,"MEAN_MOTION_DOT":0.05201279,"MEAN_MOTION_DDOT":1.2188e-5},{"OBJECT_NAME":"2022-098A","OBJECT_ID":"2022-098A","EPOCH":"2022-08-29T13:38:21.865632","MEAN_MOTION":15.08813587,"ECCENTRICITY":0.0011367,"INCLINATION":97.5311,"RA_OF_ASC_NODE":337.5525,"ARG_OF_PERICENTER":182.7699,"MEAN_ANOMALY":301.9928,"EPHEMERIS_TYPE":0,"CLASSIFICATION_TYPE":"U","NORAD_CAT_ID":53444,"ELEMENT_SET_NO":999,"REV_AT_EPOCH":292,"BSTAR":0.00010818,"MEAN_MOTION_DOT":1.641e-5,"MEAN_MOTION_DDOT":0},{"OBJECT_NAME":"2022-098B","OBJECT_ID":"2022-098B","EPOCH":"2022-08-29T13:26:47.561280","MEAN_MOTION":15.09455034,"ECCENTRICITY":0.0009408,"INCLINATION":97.5338,"RA_OF_ASC_NODE":337.5712,"ARG_OF_PERICENTER":193.6965,"MEAN_ANOMALY":291.7664,"EPHEMERIS_TYPE":0,"CLASSIFICATION_TYPE":"U","NORAD_CAT_ID":53445,"ELEMENT_SET_NO":999,"REV_AT_EPOCH":290,"BSTAR":0.00013029,"MEAN_MOTION_DOT":2.024e-5,"MEAN_MOTION_DDOT":0},{"OBJECT_NAME":"2022-098C","OBJECT_ID":"2022-098C","EPOCH":"2022-08-29T13:36:19.988064","MEAN_MOTION":15.08926618,"ECCENTRICITY":0.0011617,"INCLINATION":97.5356,"RA_OF_ASC_NODE":337.5666,"ARG_OF_PERICENTER":186.6297,"MEAN_ANOMALY":298.2981,"EPHEMERIS_TYPE":0,"CLASSIFICATION_TYPE":"U","NORAD_CAT_ID":53446,"ELEMENT_SET_NO":999,"REV_AT_EPOCH":290,"BSTAR":0.00011297,"MEAN_MOTION_DOT":1.721e-5,"MEAN_MOTION_DDOT":0},{"OBJECT_NAME":"2022-098D","OBJECT_ID":"2022-098D","EPOCH":"2022-08-29T13:33:51.636672","MEAN_MOTION":15.09072158,"ECCENTRICITY":0.0010906,"INCLINATION":97.5267,"RA_OF_ASC_NODE":337.5453,"ARG_OF_PERICENTER":188.0215,"MEAN_ANOMALY":297.6332,"EPHEMERIS_TYPE":0,"CLASSIFICATION_TYPE":"U","NORAD_CAT_ID":53447,"ELEMENT_SET_NO":999,"REV_AT_EPOCH":290,"BSTAR":0.00011776,"MEAN_MOTION_DOT":1.804e-5,"MEAN_MOTION_DDOT":0},{"OBJECT_NAME":"2022-098E","OBJECT_ID":"2022-098E","EPOCH":"2022-08-29T13:30:41.827104","MEAN_MOTION":15.09255765,"ECCENTRICITY":0.0011444,"INCLINATION":97.534,"RA_OF_ASC_NODE":337.5681,"ARG_OF_PERICENTER":194.211,"MEAN_ANOMALY":292.2584,"EPHEMERIS_TYPE":0,"CLASSIFICATION_TYPE":"U","NORAD_CAT_ID":53448,"ELEMENT_SET_NO":999,"REV_AT_EPOCH":290,"BSTAR":0.0001223,"MEAN_MOTION_DOT":1.886e-5,"MEAN_MOTION_DDOT":0},{"OBJECT_NAME":"2022-098F","OBJECT_ID":"2022-098F","EPOCH":"2022-08-29T13:28:56.210016","MEAN_MOTION":15.09345156,"ECCENTRICITY":0.0011055,"INCLINATION":97.5293,"RA_OF_ASC_NODE":337.5549,"ARG_OF_PERICENTER":195.3281,"MEAN_ANOMALY":290.6492,"EPHEMERIS_TYPE":0,"CLASSIFICATION_TYPE":"U","NORAD_CAT_ID":53449,"ELEMENT_SET_NO":999,"REV_AT_EPOCH":290,"BSTAR":0.00012628,"MEAN_MOTION_DOT":1.954e-5,"MEAN_MOTION_DDOT":0},{"OBJECT_NAME":"2022-098G","OBJECT_ID":"2022-098G","EPOCH":"2022-08-29T13:25:08.036256","MEAN_MOTION":15.09547187,"ECCENTRICITY":0.0008423,"INCLINATION":97.534,"RA_OF_ASC_NODE":337.5726,"ARG_OF_PERICENTER":193.6287,"MEAN_ANOMALY":291.9921,"EPHEMERIS_TYPE":0,"CLASSIFICATION_TYPE":"U","NORAD_CAT_ID":53450,"ELEMENT_SET_NO":999,"REV_AT_EPOCH":290,"BSTAR":0.00013058,"MEAN_MOTION_DOT":2.033e-5,"MEAN_MOTION_DDOT":0},{"OBJECT_NAME":"2022-098H","OBJECT_ID":"2022-098H","EPOCH":"2022-08-29T13:23:42.745632","MEAN_MOTION":15.09625389,"ECCENTRICITY":0.000907,"INCLINATION":97.5385,"RA_OF_ASC_NODE":337.5862,"ARG_OF_PERICENTER":197.7955,"MEAN_ANOMALY":287.906,"EPHEMERIS_TYPE":0,"CLASSIFICATION_TYPE":"U","NORAD_CAT_ID":53451,"ELEMENT_SET_NO":999,"REV_AT_EPOCH":290,"BSTAR":0.0001303,"MEAN_MOTION_DOT":2.033e-5,"MEAN_MOTION_DDOT":0},{"OBJECT_NAME":"2022-098J","OBJECT_ID":"2022-098J","EPOCH":"2022-08-29T13:22:00.347808","MEAN_MOTION":15.09719797,"ECCENTRICITY":0.0009122,"INCLINATION":97.5289,"RA_OF_ASC_NODE":337.5613,"ARG_OF_PERICENTER":199.6368,"MEAN_ANOMALY":286.0857,"EPHEMERIS_TYPE":0,"CLASSIFICATION_TYPE":"U","NORAD_CAT_ID":53452,"ELEMENT_SET_NO":999,"REV_AT_EPOCH":290,"BSTAR":0.00013529,"MEAN_MOTION_DOT":2.119e-5,"MEAN_MOTION_DDOT":0}]
